ORBCOMM FM33 [-]        
1 25983U 99065D   23241.44579157  .00000941  00000+0  36424-3 0  9995
2 25983  45.0286 237.0374 0009545 344.7524 174.4607 14.36666256241452
ORBCOMM FM36 [-]        
1 25984U 99065E   23241.21533569  .00000925  00000+0  37437-3 0  9995
2 25984  45.0413 319.2340 0005380 237.6355 122.3972 14.34556403240429
ORBCOMM FM35 [+]        
1 25985U 99065F   23240.49986175  .00000762  00000+0  31877-3 0  9991
2 25985  45.0415 324.5838 0002805 309.3598  50.7001 14.34270607240132
ORBCOMM FM34 [-]        
1 25986U 99065G   23241.50695863  .00000791  00000+0  32946-3 0  9996
2 25986  45.0408 320.2971 0004882 272.0030  88.0258 14.34212671240438
ORBCOMM FM38 [-]        
1 33060U 08031A   23241.67350004  .00001828  00000+0  29282-3 0  9995
2 33060  48.4416 194.3550 0005177 101.6557 258.4937 14.75911261817453
ORBCOMM FM41 [-]        
1 33061U 08031B   23241.20434271  .00001715  00000+0  27805-3 0  9998
2 33061  48.4451 202.6312 0004363  83.9430 289.8284 14.75682244817347
ORBCOMM FM29 [-]        
1 33062U 08031C   23241.33695425  .00001801  00000+0  29127-3 0  9998
2 33062  48.4387 209.9616 0006204  83.6852  69.4835 14.75552204817227
ORBCOMM FM39 [-]        
1 33063U 08031D   23241.18597722  .00001516  00000+0  25451-3 0  9992
2 33063  48.4412 229.4564 0007240  59.0827 301.0797 14.74735394816959
